OBJECT_NAME,OBJECT_ID,EPOCH,MEAN_MOTION,ECCENTRICITY,INCLINATION,RA_OF_ASC_NODE,ARG_OF_PERICENTER,MEAN_ANOMALY,EPHEMERIS_TYPE,CLASSIFICATION_TYPE,NORAD_CAT_ID,ELEMENT_SET_NO,REV_AT_EPOCH,BSTAR,MEAN_MOTION_DOT,MEAN_MOTION_DDOT
PERSEUS-M1,2014-033AF,2026-06-30T19:37:46.763040,14.95677159,.00099965,97.9649,126.1740,250.1954,109.8189,0,U,40039,999,65267,.12171915E-3,.1294E-4,0
POLYITAN-1,2014-033AJ,2026-07-01T08:13:14.466720,15.33763480,.00087616,98.0933,209.9470,102.5893,257.6328,0,U,40042,999,65576,.80280186E-3,.26215E-3,0
TIGRISAT,2014-033AK,2026-07-01T01:29:18.709440,14.85211339,.00498175,97.7848,331.7571,30.6226,329.7881,0,U,40043,999,64768,.22091814E-3,.1881E-4,0
AEROCUBE 6A,2014-033AM,2026-07-01T10:48:08.869824,14.98230566,.00378602,97.7227,349.2487,328.2891,31.6051,0,U,40045,999,64875,.51965329E-3,.6204E-4,0
AEROCUBE 6B,2014-033AN,2026-07-01T10:31:29.709984,14.99693170,.00377788,97.7225,349.0597,319.1201,40.7190,0,U,40046,999,64889,.50316671E-3,.624E-4,0
CANX-4,2014-034C,2026-07-01T11:20:23.155872,14.81290157,.00120902,98.3102,58.3088,330.9197,29.1340,0,U,40055,999,64664,.1293694E-3,.953E-5,0
CANX-5,2014-034D,2026-07-01T09:40:37.161696,14.81307917,.00120996,98.3105,58.2814,331.3634,28.6911,0,U,40056,999,63744,.14055209E-3,.104E-4,0
UKUBE-1,2014-037F,2026-07-01T05:58:22.780992,15.13766738,.0003192,98.4232,187.0001,110.4842,249.6729,0,U,40074,999,65068,.56113E-3,.10051E-3,0
BRITE-PL2 (HEWELIUSZ),2014-049B,2026-07-01T07:09:40.121856,14.94645278,.00151408,97.9112,294.4083,65.3963,294.8832,0,U,40119,999,64355,.16731449E-3,.1757E-4,0
AEROCUBE 5C,2015-058B,2026-07-01T12:28:37.319232,14.91511742,.01314673,64.7653,218.0001,57.6805,303.6958,0,U,40965,999,36779,.21792178E-3,.2403E-4,0
AEROCUBE 7,2015-058C,2026-07-01T11:24:14.947200,14.95810439,.01211875,64.7601,200.0598,56.0469,305.2094,0,U,40966,999,36809,.32265615E-3,.4007E-4,0
FOX-1A (AO-85),2015-058D,2026-07-01T13:43:50.695392,14.91028580,.01313639,64.7738,234.2784,51.0040,310.2684,0,U,40967,999,11571,.20846425E-3,.2259E-4,0
SINOD-D 1,2015-058E,2026-07-01T06:01:14.365344,14.95988886,.01199868,64.7729,214.8681,47.5376,313.5805,0,U,40968,999,11876,.3179383E-3,.3954E-4,0
SNAP-3 ALICE,2015-058G,2026-07-01T15:28:33.726720,15.63832969,.00239239,64.7496,53.8264,0.6825,359.4351,0,U,40970,999,11914,.15728401E-2,.15315E-2,0
LMRST-SAT,2015-058H,2026-07-01T11:08:10.865760,14.90644908,.0132935,64.7744,230.9794,53.0698,308.2503,0,U,40971,999,11568,.20349412E-3,.2186E-4,0
SNAP-3 EDDIE,2015-058J,2026-07-01T14:57:53.030880,15.65017243,.00246355,64.7407,44.5173,3.9967,356.1373,0,U,40972,999,12128,.15116826E-2,.154442E-2,0
PROPCUBE 3,2015-058K,2026-07-01T11:08:52.072512,14.94330236,.01248888,64.7664,207.9257,54.2868,306.9789,0,U,40973,999,11693,.27176711E-3,.3238E-4,0
BISONSAT,2015-058L,2026-07-01T03:31:30.203040,15.16564131,.00806592,64.7579,128.4988,41.5256,319.1958,0,U,40974,999,11773,.95517129E-3,.2021E-3,0
SNAP-3 JIMI,2015-058M,2026-07-01T07:13:46.065504,15.02442606,.01069439,64.7628,175.1114,49.7120,311.3284,0,U,40975,999,11634,.56123884E-3,.8277E-4,0
PROPCUBE 1 (FLORA),2015-058N,2026-07-01T15:12:14.197824,14.89279081,.01315758,64.7741,250.4618,55.2956,306.0468,0,U,40976,999,11841,.19877922E-3,.2044E-4,0
SINOD-D 3,2015-058P,2026-07-01T13:34:09.173280,14.94093914,.01201086,64.7709,230.9185,52.4313,308.7637,0,U,40977,999,11690,.26393563E-3,.3082E-4,0
HORYU-4,2016-012D,2026-07-01T02:47:19.213440,16.22032858,.00098256,30.9802,335.3658,346.1695,13.8704,0,U,41340,999,57305,.12696318E-2,.3107806E-1,-.3847134E-5
RAVAN,2016-067B,2026-07-01T03:12:12.873312,15.56066980,.0002065,97.9870,73.3297,331.4556,28.6583,0,U,41849,999,52986,.10967013E-2,.76979E-3,0
CELTEE 1,2016-067C,2026-07-01T08:42:51.808896,15.19821344,.00017064,98.0653,49.8968,126.6304,233.5086,0,U,41850,999,52803,.3270138E-3,.6931E-4,0
OPTICUBE 04,2016-067D,2026-07-01T07:54:21.849120,15.09722264,.00169439,98.0685,35.3503,71.7843,288.5227,0,U,41851,999,52730,.19091174E-3,.3016E-4,0
AEROCUBE 8D,2016-067E,2026-07-01T11:08:50.995104,15.24595526,.00050219,98.0659,53.7221,89.6890,270.4921,0,U,41852,999,52824,.36944352E-3,.9033E-4,0
AEROCUBE 8C,2016-067F,2026-07-01T08:32:27.317472,15.24848091,.00056441,98.0534,50.8147,28.9587,331.1961,0,U,41853,999,52822,.40921263E-3,.10093E-3,0
CORVUS BC2,2017-042X,2026-06-30T09:56:15.662688,15.06373686,.00143013,97.4068,342.2504,69.6054,290.6709,0,U,42846,999,48905,.20104795E-3,.2906E-4,0
CORVUS BC1,2017-042Y,2026-07-01T00:07:11.628480,15.06544991,.00126583,97.4105,343.6415,46.1860,314.0412,0,U,42847,999,48917,.29070862E-3,.4247E-4,0
MAKERSAT 0,2017-073D,2026-07-01T05:17:01.250304,15.32553580,.01048837,97.4603,64.8514,222.2332,137.0798,0,U,43016,999,46861,.64730326E-3,.24201E-3,0
